NORAD_CAT_ID,OBJECT_NAME,OBJECT_TYPE,EPOCH,MEAN_MOTION,ECCENTRICITY,INCLINATION,RA_OF_ASC_NODE,ARG_OF_PERICENTER,MEAN_ANOMALY,BSTAR,MEAN_MOTION_DOT,MEAN_MOTION_DDOT,TLE_LINE0,TLE_LINE1,TLE_LINE2,SEMIMAJOR_AXIS,PERIOD,APOGEE,PERIGEE,DECAYED
53745.0,STARLINK-4656,PAYLOAD,2023-10-04 10:01:07,15.08851326,0.0001751,53.216,287.3672,90.2103,269.909,5.2173e-05,5.43e-06,0.0,0 STARLINK-4656,1 53745U 22107AX  23277.41744445  .00000543  00000-0  52173-4 0  9994,2 53745  53.2160 287.3672 0001751  90.2103 269.9090 15.08851326 59869,6917.846,95.437,540.922,538.499,0.0
53745.0,STARLINK-4656,PAYLOAD,2023-10-04 17:58:02,15.0884983,0.0001649,53.2162,285.8797,94.6836,265.4345,-5.3562e-05,-1.141e-05,0.0,0 STARLINK-4656,1 53745U 22107AX  23277.74864393 -.00001141  00000-0 -53562-4 0  9995,2 53745  53.2162 285.8797 0001649  94.6836 265.4345 15.08849830 60693,6917.85,95.437,540.856,538.575,0.0
53745.0,STARLINK-4656,PAYLOAD,2023-10-05 00:19:35,15.08841272,0.0001537,53.2161,284.6902,94.7945,265.3223,3.9346e-05,3.38e-06,0.0,0 STARLINK-4656,1 53745U 22107AX  23278.01360766  .00000338  00000-0  39346-4 0  9990,2 53745  53.2161 284.6902 0001537  94.7945 265.3223 15.08841272 59958,6917.877,95.437,540.805,538.678,0.0
53745.0,STARLINK-4656,PAYLOAD,2023-10-05 08:16:30,15.08852544,0.0001713,53.2158,283.2042,90.4025,269.7163,7.2326e-05,8.64e-06,0.0,0 STARLINK-4656,1 53745U 22107AX  23278.34480105  .00000864  00000-0  72326-4 0  9995,2 53745  53.2158 283.2042 0001713  90.4025 269.7163 15.08852544 60005,6917.842,95.437,540.892,538.522,0.0
53745.0,STARLINK-4656,PAYLOAD,2023-10-06 00:10:22,15.08844038,0.0001569,53.2164,280.2305,90.7375,269.3797,4.2131e-05,3.83e-06,0.0,0 STARLINK-4656,1 53745U 22107AX  23279.00720433  .00000383  00000-0  42131-4 0  9997,2 53745  53.2164 280.2305 0001569  90.7375 269.3797 15.08844038 60100,6917.868,95.437,540.818,538.648,0.0
53745.0,STARLINK-4656,PAYLOAD,2023-10-06 09:42:41,15.08846863,0.0001687,53.2167,278.4453,100.2333,259.885,6.5575e-05,7.56e-06,0.0,0 STARLINK-4656,1 53745U 22107AX  23279.40464246  .00000756  00000-0  65575-4 0  9999,2 53745  53.2167 278.4453 0001687 100.2333 259.8850 15.08846863 60942,6917.859,95.437,540.891,538.557,0.0
53745.0,STARLINK-4656,PAYLOAD,2023-10-06 17:39:37,15.0883601,0.0001759,53.2172,276.9557,105.0319,255.0868,2.8348e-05,1.63e-06,0.0,0 STARLINK-4656,1 53745U 22107AX  23279.73585021  .00000163  00000-0  28348-4 0  9999,2 53745  53.2172 276.9557 0001759 105.0319 255.0868 15.08836010 60213,6917.893,95.438,540.974,538.541,0.0
53745.0,STARLINK-4656,PAYLOAD,2023-10-07 09:33:28,15.08844621,0.0001679,53.2175,273.9838,97.9996,262.1186,1.2597e-05,-8.8e-07,0.0,0 STARLINK-4656,1 53745U 22107AX  23280.39824610 -.00000088  00000-0  12597-4 0  9999,2 53745  53.2175 273.9838 0001679  97.9996 262.1186 15.08844621 60316,6917.866,95.437,540.893,538.57,0.0
53745.0,STARLINK-4656,PAYLOAD,2023-10-08 09:24:15,15.08847833,0.0001604,53.2171,269.5235,96.6651,263.4524,0.00018598,2.674e-05,0.0,0 STARLINK-4656,1 53745U 22107AX  23281.39184513  .00002674  00000-0  18598-3 0  9999,2 53745  53.2171 269.5235 0001604  96.6651 263.4524 15.08847833 61247,6917.856,95.437,540.831,538.612,0.0
53745.0,STARLINK-4656,PAYLOAD,2023-10-08 15:45:48,15.08841235,0.0001561,53.2175,268.3339,96.2806,263.8364,7.3959e-05,8.89e-06,0.0,0 STARLINK-4656,1 53745U 22107AX  23281.65680848  .00000889  00000-0  73959-4 0  9999,2 53745  53.2175 268.3339 0001561  96.2806 263.8364 15.08841235 60507,6917.877,95.437,540.821,538.662,0.0
53745.0,STARLINK-4656,PAYLOAD,2023-10-09 07:39:39,15.08849615,0.00015,53.2172,265.3641,96.7124,263.4039,0.00011578,1.556e-05,0.0,0 STARLINK-4656,1 53745U 22107AX  23282.31920341  .00001556  00000-0  11578-3 0  9998,2 53745  53.2172 265.3641 0001500  96.7124 263.4039 15.08849615 61380,6917.851,95.437,540.754,538.678,0.0
53745.0,STARLINK-4656,PAYLOAD,2023-10-09 15:36:35,15.08843878,0.0001367,53.2163,263.8761,92.9847,267.1301,4.6648e-05,4.55e-06,0.0,0 STARLINK-4656,1 53745U 22107AX  23282.65040529  .00000455  00000-0  46648-4 0  9990,2 53745  53.2163 263.8761 0001367  92.9847 267.1301 15.08843878 61431,6917.869,95.437,540.679,538.788,0.0
53745.0,STARLINK-4656,PAYLOAD,2023-10-10 02:44:17,15.08838415,0.0001352,53.2171,261.7939,94.6926,265.4221,-4.2968e-05,-9.72e-06,0.0,0 STARLINK-4656,1 53745U 22107AX  23283.11409530 -.00000972  00000-0 -42968-4 0  9990,2 53745  53.2171 261.7939 0001352  94.6926 265.4221 15.08838415 60729,6917.885,95.438,540.686,538.815,0.0
53745.0,STARLINK-4656,PAYLOAD,2023-10-10 07:30:26,15.08843139,0.000137,53.2162,260.902,95.5038,264.6111,2.4101e-06,-2.5e-06,0.0,0 STARLINK-4656,1 53745U 22107AX  23283.31281153 -.00000250  00000-0  24101-5 0  9999,2 53745  53.2162 260.9020 0001370  95.5038 264.6111 15.08843139 61533,6917.871,95.437,540.684,538.788,0.0
53745.0,STARLINK-4656,PAYLOAD,2023-10-10 15:27:22,15.08839362,0.0001422,53.2158,259.4141,94.9933,265.1222,-4.0292e-05,-9.29e-06,0.0,0 STARLINK-4656,1 53745U 22107AX  23283.64400943 -.00000929  00000-0 -40292-4 0  9997,2 53745  53.2158 259.4141 0001422  94.9933 265.1222 15.08839362 61587,6917.882,95.438,540.731,538.764,0.0
53745.0,STARLINK-4656,PAYLOAD,2023-10-11 07:21:13,15.08843747,0.0001546,53.217,256.4421,94.2005,265.9164,9.7896e-05,1.271e-05,0.0,0 STARLINK-4656,1 53745U 22107AX  23284.30641063  .00001271  00000-0  97896-4 0  9992,2 53745  53.2170 256.4421 0001546  94.2005 265.9164 15.08843747 60909,6917.869,95.437,540.803,538.664,0.0
53745.0,STARLINK-4656,PAYLOAD,2023-10-12 04:01:15,15.08841679,0.000156,53.2166,252.5767,90.3211,269.796,0.00013117,1.8e-05,0.0,0 STARLINK-4656,1 53745U 22107AX  23285.16753498  .00001800  00000-0  13117-3 0  9994,2 53745  53.2166 252.5767 0001560  90.3211 269.7960 15.08841679 61039,6917.875,95.437,540.819,538.661,0.0
53745.0,STARLINK-4656,PAYLOAD,2023-10-12 07:12:01,15.08848017,0.000155,53.2165,251.9811,90.2617,269.8553,0.00021113,3.074e-05,0.0,0 STARLINK-4656,1 53745U 22107AX  23285.30001196  .00003074  00000-0  21113-3 0  9991,2 53745  53.2165 251.9811 0001550  90.2617 269.8553 15.08848017 61839,6917.856,95.437,540.793,538.649,0.0
53745.0,STARLINK-4656,PAYLOAD,2023-10-12 15:08:57,15.08840512,0.0001626,53.2171,250.4939,88.1521,271.9658,0.00014138,1.963e-05,0.0,0 STARLINK-4656,1 53745U 22107AX  23285.63121607  .00001963  00000-0  14138-3 0  9991,2 53745  53.2171 250.4939 0001626  88.1521 271.9658 15.08840512 61882,6917.879,95.438,540.869,538.619,0.0
53745.0,STARLINK-4656,PAYLOAD,2023-10-13 07:02:48,15.08851142,0.0001494,53.217,247.5168,103.4671,256.6488,0.00021769,3.179e-05,0.0,0 STARLINK-4656,1 53745U 22107AX  23286.29361131  .00003179  00000-0  21769-3 0  9991,2 53745  53.2170 247.5168 0001494 103.4671 256.6488 15.08851142 61200,6917.846,95.437,540.745,538.678,0.0
53745.0,STARLINK-4656,PAYLOAD,2023-10-13 14:59:43,15.08845217,0.0001664,53.2175,246.0305,105.0222,255.0954,0.00018462,2.652e-05,0.0,0 STARLINK-4656,1 53745U 22107AX  23286.62481386  .00002652  00000-0  18462-3 0  9994,2 53745  53.2175 246.0305 0001664 105.0222 255.0954 15.08845217 61253,6917.864,95.437,540.881,538.578,0.0
53745.0,STARLINK-4656,PAYLOAD,2023-10-14 06:53:34,15.08863569,0.0001703,53.2171,243.0567,108.2657,251.8521,0.0004305,6.574e-05,0.0,0 STARLINK-4656,1 53745U 22107AX  23287.28720367  .00006574  00000-0  43050-3 0  9990,2 53745  53.2171 243.0567 0001703 108.2657 251.8521 15.08863569 61352,6917.808,95.436,540.851,538.495,0.0
53745.0,STARLINK-4656,PAYLOAD,2023-10-14 14:50:31,15.08834302,0.000208,53.2174,241.5732,88.4757,271.6473,-0.0001007,-1.89e-05,0.0,0 STARLINK-4656,1 53745U 22107AX  23287.61841770 -.00001890  00000-0 -10070-3 0  9993,2 53745  53.2174 241.5732 0002080  88.4757 271.6473 15.08834302 61406,6917.898,95.438,541.202,538.324,0.0
53745.0,STARLINK-4656,PAYLOAD,2023-10-15 06:44:22,15.08832289,0.0001575,53.2165,238.597,119.081,241.034,-6.2798e-05,-1.287e-05,0.0,0 STARLINK-4656,1 53745U 22107AX  23288.28081784 -.00001287  00000-0 -62798-4 0  9993,2 53745  53.2165 238.5970 0001575 119.0810 241.0340 15.08832289 62288,6917.904,95.438,540.859,538.679,0.0
53745.0,STARLINK-4656,PAYLOAD,2023-10-16 03:24:23,15.08851325,0.0001294,53.2167,234.7354,88.9428,271.1713,0.00093029,0.00014553,0.0,0 STARLINK-4656,1 53745U 22107AX  23289.14194144  .00014553  00000-0  93029-3 0  9992,2 53745  53.2167 234.7354 0001294  88.9428 271.1713 15.08851325 61639,6917.846,95.437,540.606,538.816,0.0
53745.0,STARLINK-4656,PAYLOAD,2023-10-17 12:47:29,15.08856129,0.000139,53.2175,228.489,80.1042,280.0107,0.00039329,5.98e-05,0.0,0 STARLINK-4656,1 53745U 22107AX  23290.53297599  .00005980  00000-0  39329-3 0  9992,2 53745  53.2175 228.4890 0001390  80.1042 280.0107 15.08856129 62629,6917.831,95.437,540.658,538.735,0.0
53745.0,STARLINK-4656,PAYLOAD,2023-10-18 03:05:57,15.08841384,0.0001432,53.218,225.8169,103.0737,257.0415,-1.3579e-05,-5.04e-06,0.0,0 STARLINK-4656,1 53745U 22107AX  23291.12913965 -.00000504  00000-0 -13579-4 0  9999,2 53745  53.2180 225.8169 0001432 103.0737 257.0415 15.08841384 61934,6917.876,95.437,540.732,538.751,0.0
53745.0,STARLINK-4656,PAYLOAD,2023-10-18 12:38:16,15.0884168,0.0001298,53.2165,224.0291,83.7504,276.3636,0.00035823,5.418e-05,0.0,0 STARLINK-4656,1 53745U 22107AX  23291.52658201  .00005418  00000-0  35823-3 0  9994,2 53745  53.2165 224.0291 0001298  83.7504 276.3636 15.08841680 62771,6917.875,95.437,540.638,538.842,0.0
53745.0,STARLINK-4656,PAYLOAD,2023-10-19 04:32:07,15.08856183,0.0001494,53.2164,221.0567,81.8026,278.3135,0.0010446,0.00016383,0.0,0 STARLINK-4656,1 53745U 22107AX  23292.18898093  .00016383  00000-0  10446-2 0  9998,2 53745  53.2164 221.0567 0001494  81.8026 278.3135 15.08856183 62094,6917.831,95.437,540.729,538.662,0.0
53745.0,STARLINK-4656,PAYLOAD,2023-10-19 18:50:35,15.08857507,0.0001448,53.2148,218.3795,87.9946,272.1212,0.00067356,0.00010453,0.0,0 STARLINK-4656,1 53745U 22107AX  23292.78513780  .00010453  00000-0  67356-3 0  9996,2 53745  53.2148 218.3795 0001448  87.9946 272.1212 15.08857507 62184,6917.827,95.436,540.694,538.69,0.0
